{"fetched_at":"2026-03-29T02:12:04Z","count":15717,"tles":[{"name":"STARLINK-30279","line1":"1 57885U 23144X   26087.60141333 -.00000519  00000+0 -93349-5 0  9990","line2":"2 57885  43.0019 178.0599 0001177 288.4174  71.6549 15.27586309140475","category":"Starlink"}]}